SAR-LUPE 2              
1 31797U 07030A   26167.24921140  .00030485  00000+0  54431-3 0  9991
2 31797  98.1046 271.5646 0005083 147.4857 212.6707 15.49998043 56794
SAPPHIRE                
1 39088U 13009C   26167.25556532  .00000090  00000+0  46469-4 0  9997
2 39088  98.4259 346.7335 0010058 249.6793 110.3313 14.35240360696441
PRAETORIAN SDA_602      
1 65565U 25203A   26167.30127315  .00000055  00000+0  38298-4 0  9996
2 65565  81.3031  11.5895 0005730 186.3596 173.7489 13.84342678 38575
PRAETORIAN SDA_603      
1 65566U 25203B   26167.03848650  .00000112  00000+0  90401-4 0  9997
2 65566  81.3038  11.7489 0009251 190.6484 169.4478 13.83905732 38542
PRAETORIAN SDA_604      
1 65567U 25203C   26167.27452110  .00000047  00000+0  32167-4 0  9998
2 65567  81.3053  11.9411 0005205 194.2383 165.8627 13.83047334 38552
PRAETORIAN SDA_605      
1 65568U 25203D   26167.09546234  .00000045  00000+0  29745-4 0  9996
2 65568  81.3018  11.7707 0008031 185.9668 174.1394 13.83434080 38544
PRAETORIAN SDA_606      
1 65569U 25203E   26167.29496212  .00000057  00000+0  41129-4 0  9992
2 65569  81.3055  11.8075 0005677 183.3383 176.7737 13.83407285 38562
PRAETORIAN SDA_607      
1 65570U 25203F   26167.08672463  .00000123  00000+0  99692-4 0  9997
2 65570  81.3038  11.6648 0008575 190.5923 169.5055 13.84284449 38557
PRAETORIAN SDA_608      
1 65571U 25203G   26167.28066092  .00000049  00000+0  33499-4 0  9995
2 65571  81.3007  11.6468 0005719 193.3693 166.7313 13.83816705 38568
PRAETORIAN SDA_609      
1 65572U 25203H   26167.28582620  .00000176  00000+0  14755-3 0  9990
2 65572  81.3054  11.6250 0006600 187.1382 172.9682 13.84211218 38574
PRAETORIAN SDA_610      
1 65573U 25203J   26167.04353469  .00000044  00000+0  28619-4 0  9991
2 65573  81.3007  11.8243 0006377 191.6470 168.4540 13.83851756 38531
PRAETORIAN SDA_611      
1 65574U 25203K   26167.26085707 -.00000155  00000+0 -15246-3 0  9999
2 65574  81.3010  11.7882 0005247 196.8855 163.2127 13.83308497 38558
PRAETORIAN SDA_612      
1 65575U 25203L   26167.03490915  .00000094  00000+0  72506-4 0  9999
2 65575  81.3030  11.5868 0008980 190.0419 170.0560 13.85039102 38555
PRAETORIAN SDA_613      
1 65576U 25203M   26167.26723875  .00000038  00000+0  24321-4 0  9999
2 65576  81.2999  11.7784 0005505 186.4473 173.6613 13.82764882 38552
PRAETORIAN SDA_614      
1 65577U 25203N   26167.09611989  .00000035  00000+0  20242-4 0  9998
2 65577  81.3014  11.6070 0006946 186.6896 173.4170 13.84777969 38569
PRAETORIAN SDA_615      
1 65578U 25203P   26167.28955129  .00000220  00000+0  18622-3 0  9991
2 65578  81.3028  11.3912 0008865 187.3980 172.7048 13.84435707 38580
PRAETORIAN SDA_616      
1 65579U 25203Q   26167.26004362  .00000097  00000+0  77904-4 0  9995
2 65579  81.3067  11.9335 0005177 194.8482 165.2523 13.83267320 38557
PRAETORIAN SDA_617      
1 65580U 25203R   26167.28156791  .00000019  00000+0  68527-5 0  9999
2 65580  81.3037  11.7447 0007203 186.6442 173.4620 13.83149898 38564
PRAETORIAN SDA_618      
1 65581U 25203S   26167.25575336  .00000178  00000+0  14766-3 0  9997
2 65581  81.3025  11.3523 0009537 190.2237 169.8727 13.84669290 38581
PRAETORIAN SDA_619      
1 65582U 25203T   26167.29111987  .00000166  00000+0  13912-3 0  9999
2 65582  81.3047  11.6154 0008022 187.9362 172.1669 13.83805144 39200
PRAETORIAN SDA_620      
1 65583U 25203U   26167.10204675  .00000115  00000+0  93216-4 0  9997
2 65583  81.3031  11.8106 0007490 183.8837 176.2263 13.83618136 38547
PRAETORIAN SDA_621      
1 65584U 25203V   26167.29288964  .00000049  00000+0  33115-4 0  9999
2 65584  81.3021  11.5525 0007300 181.0731 179.0412 13.83801098 38573
PRAETORIAN SDA_601      
1 65585U 25203W   26167.26311150 -.00000150  00000+0 -14828-3 0  9995
2 65585  81.3038  11.8756 0005159 198.3332 161.7639 13.83167180 38553
